CCSDS_OMM_VERS = 2.0
CREATION_DATE  = 
ORIGINATOR     = 

OBJECT_NAME    = UNKNOWN
OBJECT_ID      = 
CENTER_NAME    = EARTH
REF_FRAME      = TEME
TIME_SYSTEM    = UTC
MEAN_ELEMENT_THEORY = SGP/SGP4

EPOCH          = 2026-01-08T06:58:36.703776
MEAN_MOTION    = 14.46696716
ECCENTRICITY   = .0053928
INCLINATION    = 99.0870
RA_OF_ASC_NODE = 15.0044
ARG_OF_PERICENTER = 80.4679
MEAN_ANOMALY   = 295.3317

EPHEMERIS_TYPE = 0
CLASSIFICATION_TYPE = U
NORAD_CAT_ID   = 87211
ELEMENT_SET_NO = 999
REV_AT_EPOCH   = 71161
BSTAR          = .1061E-2
MEAN_MOTION_DOT = .3855E-4
MEAN_MOTION_DDOT = 0

CCSDS_OMM_VERS = 2.0
CREATION_DATE  = 
ORIGINATOR     = 

OBJECT_NAME    = UNKNOWN
OBJECT_ID      = 
CENTER_NAME    = EARTH
REF_FRAME      = TEME
TIME_SYSTEM    = UTC
MEAN_ELEMENT_THEORY = SGP/SGP4

EPOCH          = 2026-01-06T23:29:12.285888
MEAN_MOTION    = 13.84125471
ECCENTRICITY   = .0071985
INCLINATION    = 100.3305
RA_OF_ASC_NODE = 13.1224
ARG_OF_PERICENTER = 189.8286
MEAN_ANOMALY   = 170.1461

EPHEMERIS_TYPE = 0
CLASSIFICATION_TYPE = U
NORAD_CAT_ID   = 87214
ELEMENT_SET_NO = 999
REV_AT_EPOCH   = 60373
BSTAR          = .47961E-3
MEAN_MOTION_DOT = .493E-5
MEAN_MOTION_DDOT = 0

CCSDS_OMM_VERS = 2.0
CREATION_DATE  = 
ORIGINATOR     = 

OBJECT_NAME    = UNKNOWN
OBJECT_ID      = 
CENTER_NAME    = EARTH
REF_FRAME      = TEME
TIME_SYSTEM    = UTC
MEAN_ELEMENT_THEORY = SGP/SGP4

EPOCH          = 2026-01-08T03:06:46.233792
MEAN_MOTION    = 13.91782134
ECCENTRICITY   = .0103352
INCLINATION    = 99.2531
RA_OF_ASC_NODE = 68.5537
ARG_OF_PERICENTER = 212.5452
MEAN_ANOMALY   = 178.5967

EPHEMERIS_TYPE = 0
CLASSIFICATION_TYPE = U
NORAD_CAT_ID   = 87237
ELEMENT_SET_NO = 999
REV_AT_EPOCH   = 61543
BSTAR          = .25766E-3
MEAN_MOTION_DOT = .297E-5
MEAN_MOTION_DDOT = 0

CCSDS_OMM_VERS = 2.0
CREATION_DATE  = 
ORIGINATOR     = 

OBJECT_NAME    = UNKNOWN
OBJECT_ID      = 
CENTER_NAME    = EARTH
REF_FRAME      = TEME
TIME_SYSTEM    = UTC
MEAN_ELEMENT_THEORY = SGP/SGP4

EPOCH          = 2026-01-11T02:16:20.788320
MEAN_MOTION    = 14.52564392
ECCENTRICITY   = .0016694
INCLINATION    = 82.8730
RA_OF_ASC_NODE = 57.9259
ARG_OF_PERICENTER = 307.6145
MEAN_ANOMALY   = 52.3538

EPHEMERIS_TYPE = 0
CLASSIFICATION_TYPE = U
NORAD_CAT_ID   = 87239
ELEMENT_SET_NO = 999
REV_AT_EPOCH   = 63213
BSTAR          = .19583E-2
MEAN_MOTION_DOT = .8039E-4
MEAN_MOTION_DDOT = 0

CCSDS_OMM_VERS = 2.0
CREATION_DATE  = 
ORIGINATOR     = 

OBJECT_NAME    = UNKNOWN
OBJECT_ID      = 
CENTER_NAME    = EARTH
REF_FRAME      = TEME
TIME_SYSTEM    = UTC
MEAN_ELEMENT_THEORY = SGP/SGP4

EPOCH          = 2026-01-11T14:48:02.270016
MEAN_MOTION    = 14.16059999
ECCENTRICITY   = .0427917
INCLINATION    = 65.6424
RA_OF_ASC_NODE = 327.8918
ARG_OF_PERICENTER = 106.2208
MEAN_ANOMALY   = 65.8757

EPHEMERIS_TYPE = 0
CLASSIFICATION_TYPE = U
NORAD_CAT_ID   = 87245
ELEMENT_SET_NO = 999
REV_AT_EPOCH   = 61843
BSTAR          = .73714E-3
MEAN_MOTION_DOT = .348E-4
MEAN_MOTION_DDOT = 0

CCSDS_OMM_VERS = 2.0
CREATION_DATE  = 
ORIGINATOR     = 

OBJECT_NAME    = UNKNOWN
OBJECT_ID      = 
CENTER_NAME    = EARTH
REF_FRAME      = TEME
TIME_SYSTEM    = UTC
MEAN_ELEMENT_THEORY = SGP/SGP4

EPOCH          = 2026-01-11T15:47:52.113120
MEAN_MOTION    = 14.22051079
ECCENTRICITY   = .041946
INCLINATION    = 65.7538
RA_OF_ASC_NODE = 155.8564
ARG_OF_PERICENTER = 57.7008
MEAN_ANOMALY   = 306.3987

EPHEMERIS_TYPE = 0
CLASSIFICATION_TYPE = U
NORAD_CAT_ID   = 87271
ELEMENT_SET_NO = 999
REV_AT_EPOCH   = 61662
BSTAR          = .87399E-3
MEAN_MOTION_DOT = .4692E-4
MEAN_MOTION_DDOT = 0

CCSDS_OMM_VERS = 2.0
CREATION_DATE  = 
ORIGINATOR     = 

OBJECT_NAME    = UNKNOWN
OBJECT_ID      = 
CENTER_NAME    = EARTH
REF_FRAME      = TEME
TIME_SYSTEM    = UTC
MEAN_ELEMENT_THEORY = SGP/SGP4

EPOCH          = 2026-01-11T02:47:05.329824
MEAN_MOTION    = 13.48580824
ECCENTRICITY   = .0128622
INCLINATION    = 64.6145
RA_OF_ASC_NODE = 162.7176
ARG_OF_PERICENTER = 254.9353
MEAN_ANOMALY   = 103.7424

EPHEMERIS_TYPE = 0
CLASSIFICATION_TYPE = U
NORAD_CAT_ID   = 87280
ELEMENT_SET_NO = 999
REV_AT_EPOCH   = 53781
BSTAR          = .68611E-3
MEAN_MOTION_DOT = .366E-5
MEAN_MOTION_DDOT = 0

CCSDS_OMM_VERS = 2.0
CREATION_DATE  = 
ORIGINATOR     = 

OBJECT_NAME    = UNKNOWN
OBJECT_ID      = 
CENTER_NAME    = EARTH
REF_FRAME      = TEME
TIME_SYSTEM    = UTC
MEAN_ELEMENT_THEORY = SGP/SGP4

EPOCH          = 2026-01-11T10:14:50.957952
MEAN_MOTION    = 14.18352039
ECCENTRICITY   = .0428221
INCLINATION    = 65.8971
RA_OF_ASC_NODE = 66.3242
ARG_OF_PERICENTER = 343.4980
MEAN_ANOMALY   = 15.2515

EPHEMERIS_TYPE = 0
CLASSIFICATION_TYPE = U
NORAD_CAT_ID   = 87293
ELEMENT_SET_NO = 999
REV_AT_EPOCH   = 61820
BSTAR          = .12809E-2
MEAN_MOTION_DOT = .6539E-4
MEAN_MOTION_DDOT = 0

CCSDS_OMM_VERS = 2.0
CREATION_DATE  = 
ORIGINATOR     = 

OBJECT_NAME    = UNKNOWN
OBJECT_ID      = 
CENTER_NAME    = EARTH
REF_FRAME      = TEME
TIME_SYSTEM    = UTC
MEAN_ELEMENT_THEORY = SGP/SGP4

EPOCH          = 2026-01-11T04:13:59.721024
MEAN_MOTION    = 13.99561006
ECCENTRICITY   = .0026229
INCLINATION    = 100.0902
RA_OF_ASC_NODE = 1.5899
ARG_OF_PERICENTER = 213.9592
MEAN_ANOMALY   = 145.9890

EPHEMERIS_TYPE = 0
CLASSIFICATION_TYPE = U
NORAD_CAT_ID   = 87300
ELEMENT_SET_NO = 999
REV_AT_EPOCH   = 61723
BSTAR          = .13972E-2
MEAN_MOTION_DOT = .1993E-4
MEAN_MOTION_DDOT = 0

CCSDS_OMM_VERS = 2.0
CREATION_DATE  = 
ORIGINATOR     = 

OBJECT_NAME    = UNKNOWN
OBJECT_ID      = 
CENTER_NAME    = EARTH
REF_FRAME      = TEME
TIME_SYSTEM    = UTC
MEAN_ELEMENT_THEORY = SGP/SGP4

EPOCH          = 2026-01-11T09:50:34.494144
MEAN_MOTION    = 14.75571984
ECCENTRICITY   = .001838
INCLINATION    = 74.0180
RA_OF_ASC_NODE = 262.8600
ARG_OF_PERICENTER = 226.7719
MEAN_ANOMALY   = 133.1921

EPHEMERIS_TYPE = 0
CLASSIFICATION_TYPE = U
NORAD_CAT_ID   = 87304
ELEMENT_SET_NO = 999
REV_AT_EPOCH   = 65085
BSTAR          = .25185E-3
MEAN_MOTION_DOT = .1688E-4
MEAN_MOTION_DDOT = 0

CCSDS_OMM_VERS = 2.0
CREATION_DATE  = 
ORIGINATOR     = 

OBJECT_NAME    = UNKNOWN
OBJECT_ID      = 
CENTER_NAME    = EARTH
REF_FRAME      = TEME
TIME_SYSTEM    = UTC
MEAN_ELEMENT_THEORY = SGP/SGP4

EPOCH          = 2026-01-10T17:11:01.234464
MEAN_MOTION    = 13.70144074
ECCENTRICITY   = .0416587
INCLINATION    = 66.5945
RA_OF_ASC_NODE = 15.1575
ARG_OF_PERICENTER = 35.9492
MEAN_ANOMALY   = 326.8847

EPHEMERIS_TYPE = 0
CLASSIFICATION_TYPE = U
NORAD_CAT_ID   = 87320
ELEMENT_SET_NO = 999
REV_AT_EPOCH   = 59771
BSTAR          = .12121E-2
MEAN_MOTION_DOT = .19E-4
MEAN_MOTION_DDOT = 0

CCSDS_OMM_VERS = 2.0
CREATION_DATE  = 
ORIGINATOR     = 

OBJECT_NAME    = UNKNOWN
OBJECT_ID      = 
CENTER_NAME    = EARTH
REF_FRAME      = TEME
TIME_SYSTEM    = UTC
MEAN_ELEMENT_THEORY = SGP/SGP4

EPOCH          = 2026-01-11T10:10:25.158720
MEAN_MOTION    = 14.08036735
ECCENTRICITY   = .0051178
INCLINATION    = 89.9944
RA_OF_ASC_NODE = 271.6911
ARG_OF_PERICENTER = 145.1776
MEAN_ANOMALY   = 215.2774

EPHEMERIS_TYPE = 0
CLASSIFICATION_TYPE = U
NORAD_CAT_ID   = 87334
ELEMENT_SET_NO = 999
REV_AT_EPOCH   = 39082
BSTAR          = .12263E-1
MEAN_MOTION_DOT = .21165E-3
MEAN_MOTION_DDOT = 0

