UNKNOWN                 
1 87211U          26008.29070259  .00003855  00000+0  10610-2 0  9999
2 87211  99.0870  15.0044 0053928  80.4679 295.3317 14.46696716711615
UNKNOWN                 
1 87214U          26006.97861442  .00000493  00000+0  47961-3 0  9992
2 87214 100.3305  13.1224 0071985 189.8286 170.1461 13.84125471603736
UNKNOWN                 
1 87237U          26008.12970178  .00000297  00000+0  25766-3 0  9994
2 87237  99.2531  68.5537 0103352 212.5452 178.5967 13.91782134615438
UNKNOWN                 
1 87239U          26011.09468505  .00008039  00000+0  19583-2 0  9993
2 87239  82.8730  57.9259 0016694 307.6145  52.3538 14.52564392632130
UNKNOWN                 
1 87245U          26011.61669294  .00003480  00000+0  73714-3 0  9998
2 87245  65.6424 327.8918 0427917 106.2208  65.8757 14.16059999618435
UNKNOWN                 
1 87271U          26011.65824205  .00004692  00000+0  87399-3 0  9996
2 87271  65.7538 155.8564 0419460  57.7008 306.3987 14.22051079616624
UNKNOWN                 
1 87280U          26011.11603391  .00000366  00000+0  68611-3 0  9998
2 87280  64.6145 162.7176 0128622 254.9353 103.7424 13.48580824537813
UNKNOWN                 
1 87293U          26011.42697868  .00006539  00000+0  12809-2 0  9993
2 87293  65.8971  66.3242 0428221 343.4980  15.2515 14.18352039618202
UNKNOWN                 
1 87300U          26011.17638566  .00001993  00000+0  13972-2 0  9995
2 87300 100.0902   1.5899 0026229 213.9592 145.9890 13.99561006617231
UNKNOWN                 
1 87304U          26011.41012146  .00001688  00000+0  25185-3 0  9997
2 87304  74.0180 262.8600 0018380 226.7719 133.1921 14.75571984650857
UNKNOWN                 
1 87320U          26010.71598651  .00001900  00000+0  12121-2 0  9999
2 87320  66.5945  15.1575 0416587  35.9492 326.8847 13.70144074597712
UNKNOWN                 
1 87334U          26011.42390230  .00021165  00000+0  12263-1 0  9997
2 87334  89.9944 271.6911 0051178 145.1776 215.2774 14.08036735390827
